[{"OBJECT_NAME":"OBJECT L","OBJECT_ID":"2023-085L","EPOCH":"2026-03-09T23:02:21.999840","MEAN_MOTION":15.29079976,"ECCENTRICITY":0.0005428,"INCLINATION":97.486,"RA_OF_ASC_NODE":178.8598,"ARG_OF_PERICENTER":50.8528,"MEAN_ANOMALY":309.3193,"EPHEMERIS_TYPE":0,"CLASSIFICATION_TYPE":"U","NORAD_CAT_ID":57014,"ELEMENT_SET_NO":999,"REV_AT_EPOCH":15144,"BSTAR":0.00063462603,"MEAN_MOTION_DOT":0.00017871,"MEAN_MOTION_DDOT":0},{"OBJECT_NAME":"STARLINK-31705","OBJECT_ID":"2024-062J","EPOCH":"2026-03-09T21:47:54.701664","MEAN_MOTION":15.3019285,"ECCENTRICITY":0.00018979,"INCLINATION":53.1595,"RA_OF_ASC_NODE":254.7329,"ARG_OF_PERICENTER":107.0611,"MEAN_ANOMALY":253.0598,"EPHEMERIS_TYPE":0,"CLASSIFICATION_TYPE":"U","NORAD_CAT_ID":59382,"ELEMENT_SET_NO":999,"REV_AT_EPOCH":10966,"BSTAR":-7.73978e-6,"MEAN_MOTION_DOT":-5.89e-6,"MEAN_MOTION_DDOT":0}]
